0 GSTAR 1
1 15677U 85035A   13281.33550315 -.00000107  00000-0  00000+0 0  6969
2 15677 013.5834 032.4913 0003507 002.8777 357.1241 01.00273142 78761
0 GSTAR 1
1 15677U 85035A   13284.32720892 -.00000114  00000-0  00000+0 0  6979
2 15677 013.5875 032.4563 0003468 003.4209 356.5840 01.00273168 78799
0 GSTAR 1
1 15677U 85035A   13285.32443339 -.00000116  00000-0  00000+0 0  6981
2 15677 013.5891 032.4457 0003247 359.5357 000.4571 01.00273074 78807
0 GSTAR 1
1 15677U 85035A   13286.32167398 -.00000117  00000-0  00000+0 0  6992
2 15677 013.5904 032.4342 0003073 352.2632 007.7275 01.00273072 78818
0 GSTAR 1
1 15677U 85035A   13289.31334147 -.00000118  00000-0  00000+0 0  7006
2 15677 013.5945 032.3993 0003002 351.5360 008.4389 01.00273037 78844
0 GSTAR 1
1 15677U 85035A   13292.30501008 -.00000115  00000-0  00000+0 0  7019
2 15677 013.5985 032.3642 0002962 353.1351 006.8269 01.00273028 78873
0 GSTAR 1
1 15677U 85035A   13294.29947943 -.00000113  00000-0  00000+0 0  7020
2 15677 013.6014 032.3411 0002919 344.4331 015.5239 01.00273025 78897
0 GSTAR 1
1 15677U 85035A   13295.29672336 -.00000111  00000-0  00000+0 0  7031
2 15677 013.6033 032.3291 0002684 332.9486 027.0067 01.00273027 78907
